BEIDOU-3 M13 (C32)      
1 43622U 18072A   24191.83030852 -.00000043  00000+0  00000+0 0  9997
2 43622  56.0095  86.1244 0006398 312.4811  47.5137  1.86231680 39481
BEIDOU-3 M14 (C33)      
1 43623U 18072B   24193.30661981 -.00000047  00000+0  00000+0 0  9999
2 43623  56.0123  86.0682 0005004 345.4936  14.5418  1.86231763 39507
BEIDOU-3 M16 (C35)      
1 43647U 18078A   24192.93218513 -.00000099  00000+0  00000+0 0  9995
2 43647  54.6974 324.6113 0006540  23.6273 336.4055  1.86232355 39002
BEIDOU-3 M15 (C34)      
1 43648U 18078B   24191.98744856 -.00000100  00000+0  00000+0 0  9997
2 43648  54.6939 324.6467 0003609  41.2408 318.7869  1.86232462 39011
BEIDOU-3 G1 (C59)       
1 43683U 18085A   24193.60672434 -.00000271  00000+0  00000+0 0  9996
2 43683   2.2503 108.6707 0003977 351.0614 188.5773  1.00278068 20983
COSMOS 2529 (757)       
1 43687U 18086A   24192.94626830  .00000056  00000+0  00000+0 0  9996
2 43687  64.2986 216.4734 0011768 259.2536 100.6666  2.13102184 44237
BEIDOU-3 M17 (C36)      
1 43706U 18093A   24193.21194315  .00000063  00000+0  00000+0 0  9993
2 43706  54.2145 206.2555 0010469 280.7162  79.1951  1.86228583 38392
BEIDOU-3 M18 (C37)      
1 43707U 18093B   24190.39234139  .00000040  00000+0  00000+0 0  9994
2 43707  54.2155 206.3430 0008342 304.5262  55.4298  1.86230021 38335
GPS BIII-1  (PRN 04)    
1 43873U 18109A   24193.26214030  .00000004  00000+0  00000+0 0  9993
2 43873  55.3056 120.0771 0029265 194.4625 337.6993  2.00557264 40919
BEIDOU-3 IGSO-1 (C38)   
1 44204U 19023A   24193.52324122 -.00000213  00000+0  00000+0 0  9994
2 44204  57.6778  44.9673 0022574 205.9491 345.1067  1.00294607   138
BEIDOU-2 G8 (C01)       
1 44231U 19027A   24193.58585821 -.00000240  00000+0  00000+0 0  9999
2 44231   1.5348  73.9033 0001456 191.2561  20.2753  1.00273287 19002
COSMOS 2534 (758)       
1 44299U 19030A   24193.47388215  .00000062  00000+0  00000+0 0  9994
2 44299  64.3715 216.4112 0013613 278.3138 260.6154  2.13102404 39888
BEIDOU-3 IGSO-2 (C39)   
1 44337U 19035A   24193.49225650 -.00000089  00000+0  00000+0 0  9997
2 44337  55.1828 165.0555 0035222 205.2126 214.5674  1.00290141 18591
GPS BIII-2  (PRN 18)    
1 44506U 19056A   24191.60420459 -.00000101  00000+0  00000+0 0  9998
2 44506  55.8410 359.1972 0043674 188.5139 129.3164  2.00572295 35870
BEIDOU-3 M24 (C46)      
1 44542U 19061A   24192.07274102  .00000049  00000+0  00000+0 0  9998
2 44542  54.4774 206.5841 0008287 348.1373  11.8736  1.86228966 32629
BEIDOU-3 M23 (C45)      
1 44543U 19061B   24193.24190025  .00000063  00000+0  00000+0 0  9996
2 44543  54.4404 206.5144 0005621 320.3640  15.8921  1.86231922 32642
BEIDOU-3 IGSO-3 (C40)   
1 44709U 19073A   24175.72519622 -.00000189  00000+0  00000+0 0  9994
2 44709  56.0384 288.6583 0039278 182.0502 177.9480  1.00247548 17183
BEIDOU-3 M22 (C44)      
1 44793U 19078A   24192.99240371 -.00000100  00000+0  00000+0 0  9995
2 44793  54.5452 324.5384 0005534  33.3031 326.7348  1.86232392 31499
BEIDOU-3 M21 (C43)      
1 44794U 19078B   24193.12213338 -.00000100  00000+0  00000+0 0  9995
2 44794  54.5187 324.5094 0003357  31.3801 328.6433  1.86232822 31503
COSMOS 2544 (759)       
1 44850U 19088A   24190.44513700 -.00000013  00000+0  00000+0 0  9990
2 44850  65.1981  97.4523 0012853 258.6912 101.2010  2.13102184 35617
BEIDOU-3 M19 (C41)      
1 44864U 19090A   24190.29230088 -.00000044  00000+0  00000+0 0  9990
2 44864  55.9432  86.3454 0017117 285.5835 169.9117  1.86231922 31034
BEIDOU-3 M20 (C42)      
1 44865U 19090B   24193.46353894 -.00000047  00000+0  00000+0 0  9997
2 44865  55.9469  86.2731 0015006 299.5268 211.8568  1.86231892 31079
BEIDOU-3 G2 (C60)       
1 45344U 20017A   24193.57300635 -.00000135  00000+0  00000+0 0  9996
2 45344   2.3450  30.5729 0001813 131.3114  54.4117  1.00272061 16186
COSMOS 2545 (760)       
1 45358U 20018A   24192.98832683 -.00000072  00000+0  00000+0 0  9999
2 45358  64.7362 337.1276 0008345 234.8369 125.0853  2.13102665 33612
BEIDOU-3 G3 (C61)       
1 45807U 20040A   24193.58114841 -.00000346  00000+0  00000+0 0  9993
2 45807   0.8179  45.2885 0004494  16.7206 187.6474  1.00266336 14993
GPS BIII-3  (PRN 23)    
1 45854U 20041A   24193.61216524 -.00000072  00000+0  00000+0 0  9997
2 45854  56.1429  56.4674 0044256 192.9822  69.6035  2.00573495 29882
GALAXY 30 (WAAS/PRN 135)
1 46114U 20056C   24192.88816286  .00000042  00000+0  00000+0 0  9998
2 46114   0.0141  72.7308 0001911  33.6793  17.6115  1.00271948 14215
COSMOS 2547 (705K)      
1 46805U 20075A   24192.70621654  .00000055  00000+0  00000+0 0  9994
2 46805  64.6005 216.0856 0008983 241.7766 118.1853  2.13103129 28857
GPS BIII-4  (PRN 14)    
1 46826U 20078A   24193.51433920  .00000018  00000+0  00000+0 0  9996
2 46826  54.1717 239.4199 0047531 197.8672 332.1664  2.00560393 27350
GPS BIII-5  (PRN 11)    
1 48859U 21054A   24193.53442222 -.00000095  00000+0  00000+0 0  9992
2 48859  55.3667   0.7612 0015782 218.1187 150.7615  2.00556908 22605
QZS-1R (QZSS/PRN 196)   
1 49336U 21096A   24189.60327316 -.00000311  00000+0  00000+0 0  9999
2 49336  35.9849  90.2184 0757440 271.9126 273.9398  1.00252126  9890
GSAT0223 (PRN E34)      
1 49809U 21116A   24193.33362420 -.00000089  00000+0  00000+0 0  9999
2 49809  57.2981   0.7158 0002263 161.5727 200.4418  1.70476263 16155
GSAT0224 (PRN E10)      
1 49810U 21116B   24193.13799587 -.00000090  00000+0  00000+0 0  9999
2 49810  57.2989   0.7195 0002043 144.6369 209.8239  1.70476285 16165
COSMOS 2557 (706K)      
1 52984U 22075A   24192.40209504 -.00000074  00000+0  00000+0 0  9996
2 52984  64.6633 339.2759 0010793 277.9283  81.9481  2.13102343 15651
COSMOS 2559 (707K)      
1 54031U 22130A   24192.34505788 -.00000074  00000+0  00000+0 0  9999
2 54031  64.6352 339.3947 0006203 212.3792 147.5817  2.13101609 13624
COSMOS 2564 (761)       
1 54377U 22161A   24193.00526019  .00000058  00000+0  00000+0 0  9991
2 54377  64.7418 216.1845 0011573 225.3926 134.5654  2.13102240 12580
GPS BIII-6  (PRN 28)    
1 55268U 23009A   24192.96580914  .00000064  00000+0  00000+0 0  9998
2 55268  55.0881 176.2350 0000645  82.3711 279.0009  2.00562901 11088
BEIDOU-3 G4             
1 56564U 23066A   24193.49215858 -.00000104  00000+0  00000+0 0  9998
2 56564   2.0633 288.2132 0005911 206.1843 132.6059  1.00273524  4316
IRNSS-1J (NVS-01)       
1 56759U 23076A   24193.56802914 -.00000326  00000+0  00000+0 0  9994
2 56759   3.9368 265.6306 0004537   9.2157 349.1636  1.00275550  4038
COSMOS 2569 (703K)      
1 57517U 23114A   24192.55313531 -.00000015  00000+0  00000+0 0  9995
2 57517  64.9258  96.5225 0010706 298.0509  61.8843  2.13103824  7200
BEIDOU-3 M25            
1 58654U 23207A   24193.20497122 -.00000047  00000+0  00000+0 0  9998
2 58654  55.1282  86.2476 0002219 317.2444  42.7870  1.86232419  3697
BEIDOU-3 M26            
1 58655U 23207B   24193.00397817 -.00000047  00000+0  00000+0 0  9997
2 58655  55.1301  86.2397 0002525 281.7278  78.2925  1.86232065  3672
